[{"OBJECT_NAME":"STARLINK-5649","OBJECT_ID":"2023-013Z","EPOCH":"2026-03-09T00:56:02.592960","MEAN_MOTION":15.02538469,"ECCENTRICITY":0.00013965,"INCLINATION":43.0046,"RA_OF_ASC_NODE":303.6873,"ARG_OF_PERICENTER":266.6859,"MEAN_ANOMALY":93.3824,"EPHEMERIS_TYPE":0,"CLASSIFICATION_TYPE":"U","NORAD_CAT_ID":55354,"ELEMENT_SET_NO":999,"REV_AT_EPOCH":17161,"BSTAR":5.906213e-5,"MEAN_MOTION_DOT":5.94e-6,"MEAN_MOTION_DDOT":0},{"OBJECT_NAME":"COSMOS 2251 DEB","OBJECT_ID":"1993-036BVX","EPOCH":"2026-03-07T01:08:49.279776","MEAN_MOTION":15.01172156,"ECCENTRICITY":0.00079061,"INCLINATION":73.9738,"RA_OF_ASC_NODE":312.9961,"ARG_OF_PERICENTER":93.9407,"MEAN_ANOMALY":333.6878,"EPHEMERIS_TYPE":0,"CLASSIFICATION_TYPE":"U","NORAD_CAT_ID":40794,"ELEMENT_SET_NO":999,"REV_AT_EPOCH":63186,"BSTAR":0.0025789321,"MEAN_MOTION_DOT":0.00033218,"MEAN_MOTION_DDOT":0}]
